OBJECT_NAME,OBJECT_ID,EPOCH,MEAN_MOTION,ECCENTRICITY,INCLINATION,RA_OF_ASC_NODE,ARG_OF_PERICENTER,MEAN_ANOMALY,EPHEMERIS_TYPE,CLASSIFICATION_TYPE,NORAD_CAT_ID,ELEMENT_SET_NO,REV_AT_EPOCH,BSTAR,MEAN_MOTION_DOT,MEAN_MOTION_DDOT
SKYSAT-C1,2016-040C,2026-07-15T13:05:14.752032,15.36752207,.0000299,96.9548,226.7338,305.8175,54.3043,0,U,41601,999,56222,.15177567E-3,.5374E-4,0
LAPAN-A3,2016-040E,2026-07-15T23:21:30.023424,15.33280529,.00082426,97.1505,192.1784,272.7920,87.2380,0,U,41603,999,55922,.57486826E-4,.1775E-4,0
GAOFEN-3,2016-049A,2026-07-15T22:41:05.297280,14.42218538,.00017539,98.4010,204.2972,84.7389,275.4000,0,U,41727,999,52279,-.2172067E-4,-.115E-5,0
SKYSAT-C4,2016-058B,2026-07-15T11:56:16.479744,15.49444803,.0003425,96.9158,217.0987,116.4408,243.7197,0,U,41771,999,54985,.21162188E-3,.11548E-3,0
SKYSAT-C5,2016-058C,2026-07-15T08:12:09.018720,15.33720350,.00025669,97.0454,235.7193,160.1031,200.0313,0,U,41772,999,54806,.12741023E-3,.408E-4,0
SKYSAT-C2,2016-058D,2026-07-15T00:38:38.303808,15.42678066,.00015194,97.0156,217.0836,354.7019,5.4213,0,U,41773,999,54934,.16514772E-3,.7118E-4,0
SKYSAT-C3,2016-058E,2026-07-15T00:59:04.071840,15.53702651,.00025158,96.8991,225.8356,132.0460,228.1009,0,U,41774,999,55043,.23176588E-3,.14739E-3,0
ALSAT-1B,2016-059C,2026-07-15T23:43:25.565376,14.72295056,.00103456,97.7749,204.5094,127.4836,232.7314,0,U,41785,999,52481,.50298828E-4,.271E-5,0
PATHFINDER 1,2016-059E,2026-07-15T23:24:02.741472,14.67693642,.00298378,97.8177,194.9535,113.3409,247.0941,0,U,41787,999,52393,.54440694E-4,.265E-5,0
SCATSAT 1,2016-059H,2026-07-15T18:03:56.068128,14.79588015,.00552527,98.1178,260.8119,154.7791,205.6137,0,U,41790,999,10581,.90536768E-4,.639E-5,0
GOKTURK 1A,2016-073A,2026-07-15T23:24:18.889632,14.62793971,.00014032,98.1220,91.1943,80.2833,279.8528,0,U,41875,999,51303,.734799E-4,.328E-5,0
RESOURCESAT-2A,2016-074A,2026-07-15T22:15:43.546176,14.21607276,.00023905,98.7525,270.1955,27.1238,333.0064,0,U,41877,999,49838,-.12772016E-3,-.324E-5,0
CARTOSAT-2D,2017-008A,2026-07-15T22:34:52.515840,15.19285465,.00060671,97.4095,255.7066,135.7691,224.4030,0,U,41948,999,52194,.42241954E-4,.824E-5,0
SENTINEL-2B,2017-013A,2026-07-15T22:46:13.581120,14.30815055,.00012036,98.5691,271.3159,89.8567,270.2753,0,U,42063,999,48875,.22101779E-4,.14E-6,0
CARTOSAT-2E,2017-036C,2026-07-15T23:00:28.871136,15.19257364,.00032952,97.4263,256.2840,185.8595,174.2602,0,U,42767,999,50251,.87473689E-4,.1776E-4,0
FORMOSAT-5,2017-049A,2026-07-15T21:06:24.696864,14.50907929,.00112946,98.2246,271.5507,1.7428,358.3805,0,U,42920,999,47083,.22094893E-4,.44E-6,0
SENTINEL-5P,2017-064A,2026-07-15T19:39:34.591104,14.19523350,.00011361,98.7929,138.7478,93.1650,266.9656,0,U,42969,999,45362,.24073677E-4,.6E-7,0
SKYSAT-C11,2017-068A,2026-07-15T22:44:37.354848,15.59351131,.00011612,97.4381,347.0668,158.9178,201.2126,0,U,42987,999,48772,.23691148E-3,.18575E-3,0
SKYSAT-C10,2017-068B,2026-07-15T21:53:46.495680,15.35125075,.00014649,97.4542,334.0538,110.9376,249.2024,0,U,42988,999,48676,.17869315E-3,.6009E-4,0
SKYSAT-C9,2017-068C,2026-07-15T22:09:36.660672,15.42224961,.00085793,97.4461,335.2786,42.5748,317.6163,0,U,42989,999,48718,.17584692E-3,.7471E-4,0
SKYSAT-C8,2017-068D,2026-07-15T21:42:38.583936,15.37499510,.00012128,97.4558,333.9566,103.3850,256.7530,0,U,42990,999,48672,.16040315E-3,.5815E-4,0
SKYSAT-C7,2017-068E,2026-07-15T21:34:43.894560,15.37449994,.00056679,97.4569,334.9426,18.9667,341.1788,0,U,42991,999,48678,.15896567E-3,.5755E-4,0
SKYSAT-C6,2017-068F,2026-07-15T21:51:05.777856,15.34176907,.00050815,97.4607,334.8045,87.6386,272.5438,0,U,42992,999,48672,.1554314E-3,.5061E-4,0
CARTOSAT-2F,2018-004A,2026-07-15T23:47:23.688096,15.19171951,.00023666,97.4774,256.3421,130.1455,229.9987,0,U,43111,999,47170,.8079755E-5,.102E-5,0
GAOFEN-1 02,2018-031A,2026-07-15T23:10:26.568192,14.76472139,.00014827,98.0518,259.4098,283.4730,76.6314,0,U,43259,999,44694,.27599899E-4,.141E-5,0
GAOFEN-1 03,2018-031B,2026-07-15T22:38:54.676032,14.76463003,.00023546,98.0503,259.2433,13.6481,346.4792,0,U,43260,999,44693,.51912286E-4,.31E-5,0
GAOFEN-1 04,2018-031D,2026-07-15T22:03:55.118880,14.76469548,.00012659,98.0519,259.4134,55.1743,304.9586,0,U,43262,999,44692,-.20299748E-4,-.193E-5,0
SENTINEL-3B,2018-039A,2026-07-15T19:15:52.126560,14.26736422,.00011538,98.6236,263.9224,119.6296,240.5000,0,U,43437,999,42820,.35746444E-4,.43E-6,0
GAOFEN-5 01,2018-043A,2026-07-15T21:39:09.482976,14.60623571,.00020524,98.4590,169.0949,30.5044,329.6275,0,U,43461,999,43588,.35915524E-4,.126E-5,0
GAOFEN-6,2018-048A,2026-07-15T22:36:27.276768,14.76383953,.00121215,98.0962,259.6454,79.4244,280.8330,0,U,43484,999,43763,.57104432E-4,.345E-5,0
